1 08820U 76039A   03105.94597673  .00000017  00000-0  10000-3 0  9365
2 08820 109.8108 160.2977 0044585 314.7155  44.9999  6.38664555373084
